<?xml version="1.0" encoding="UTF-8"?>
<ndm xmlns:xsi="http://www.w3.org/2001/XMLSchema-instance" xsi:noNamespaceSchemaLocation="https://sanaregistry.org/r/ndmxml_unqualified/ndmxml-2.0.0-master-2.0.xsd">
<omm id="CCSDS_OMM_VERS" version="2.0">
<header><CREATION_DATE/><ORIGINATOR/></header><body><segment><metadata><OBJECT_NAME>ORBCOMM-X</OBJECT_NAME><OBJECT_ID>1991-050C</OBJECT_ID><CENTER_NAME>EARTH</CENTER_NAME><REF_FRAME>TEME</REF_FRAME><TIME_SYSTEM>UTC</TIME_SYSTEM><MEAN_ELEMENT_THEORY>SGP4</MEAN_ELEMENT_THEORY></metadata><data><meanElements><EPOCH>2025-02-09T04:24:10.261440</EPOCH><MEAN_MOTION>14.43079043</MEAN_MOTION><ECCENTRICITY>.0003253</ECCENTRICITY><INCLINATION>98.3601</INCLINATION><RA_OF_ASC_NODE>109.3145</RA_OF_ASC_NODE><ARG_OF_PERICENTER>195.6724</ARG_OF_PERICENTER><MEAN_ANOMALY>164.4366</MEAN_ANOMALY></meanElements><tleParameters><EPHEMERIS_TYPE>0</EPHEMERIS_TYPE><CLASSIFICATION_TYPE>U</CLASSIFICATION_TYPE><NORAD_CAT_ID>21576</NORAD_CAT_ID><ELEMENT_SET_NO>999</ELEMENT_SET_NO><REV_AT_EPOCH>76365</REV_AT_EPOCH><BSTAR>.19481E-3</BSTAR><MEAN_MOTION_DOT>.61E-5</MEAN_MOTION_DOT><MEAN_MOTION_DDOT>0</MEAN_MOTION_DDOT></tleParameters></data></segment></body></omm>
<omm id="CCSDS_OMM_VERS" version="2.0">
<header><CREATION_DATE/><ORIGINATOR/></header><body><segment><metadata><OBJECT_NAME>ORBCOMM FM01</OBJECT_NAME><OBJECT_ID>1995-017A</OBJECT_ID><CENTER_NAME>EARTH</CENTER_NAME><REF_FRAME>TEME</REF_FRAME><TIME_SYSTEM>UTC</TIME_SYSTEM><MEAN_ELEMENT_THEORY>SGP4</MEAN_ELEMENT_THEORY></metadata><data><meanElements><EPOCH>2025-02-09T16:41:16.837728</EPOCH><MEAN_MOTION>14.87435673</MEAN_MOTION><ECCENTRICITY>.0003739</ECCENTRICITY><INCLINATION>69.9646</INCLINATION><RA_OF_ASC_NODE>31.5001</RA_OF_ASC_NODE><ARG_OF_PERICENTER>224.4859</ARG_OF_PERICENTER><MEAN_ANOMALY>135.5994</MEAN_ANOMALY></meanElements><tleParameters><EPHEMERIS_TYPE>0</EPHEMERIS_TYPE><CLASSIFICATION_TYPE>U</CLASSIFICATION_TYPE><NORAD_CAT_ID>23545</NORAD_CAT_ID><ELEMENT_SET_NO>999</ELEMENT_SET_NO><REV_AT_EPOCH>59388</REV_AT_EPOCH><BSTAR>.11467E-2</BSTAR><MEAN_MOTION_DOT>.10329E-3</MEAN_MOTION_DOT><MEAN_MOTION_DDOT>0</MEAN_MOTION_DDOT></tleParameters></data></segment></body></omm>
<omm id="CCSDS_OMM_VERS" version="2.0">
<header><CREATION_DATE/><ORIGINATOR/></header><body><segment><metadata><OBJECT_NAME>ORBCOMM FM02</OBJECT_NAME><OBJECT_ID>1995-017B</OBJECT_ID><CENTER_NAME>EARTH</CENTER_NAME><REF_FRAME>TEME</REF_FRAME><TIME_SYSTEM>UTC</TIME_SYSTEM><MEAN_ELEMENT_THEORY>SGP4</MEAN_ELEMENT_THEORY></metadata><data><meanElements><EPOCH>2025-02-09T18:10:38.627328</EPOCH><MEAN_MOTION>14.87730793</MEAN_MOTION><ECCENTRICITY>.0004092</ECCENTRICITY><INCLINATION>69.9658</INCLINATION><RA_OF_ASC_NODE>51.0179</RA_OF_ASC_NODE><ARG_OF_PERICENTER>207.3062</ARG_OF_PERICENTER><MEAN_ANOMALY>152.7877</MEAN_ANOMALY></meanElements><tleParameters><EPHEMERIS_TYPE>0</EPHEMERIS_TYPE><CLASSIFICATION_TYPE>U</CLASSIFICATION_TYPE><NORAD_CAT_ID>23546</NORAD_CAT_ID><ELEMENT_SET_NO>999</ELEMENT_SET_NO><REV_AT_EPOCH>59348</REV_AT_EPOCH><BSTAR>.13375E-2</BSTAR><MEAN_MOTION_DOT>.12154E-3</MEAN_MOTION_DOT><MEAN_MOTION_DDOT>0</MEAN_MOTION_DDOT></tleParameters></data></segment></body></omm>
<omm id="CCSDS_OMM_VERS" version="2.0">
<header><CREATION_DATE/><ORIGINATOR/></header><body><segment><metadata><OBJECT_NAME>ORBCOMM FM08</OBJECT_NAME><OBJECT_ID>1997-084A</OBJECT_ID><CENTER_NAME>EARTH</CENTER_NAME><REF_FRAME>TEME</REF_FRAME><TIME_SYSTEM>UTC</TIME_SYSTEM><MEAN_ELEMENT_THEORY>SGP4</MEAN_ELEMENT_THEORY></metadata><data><meanElements><EPOCH>2025-02-09T07:43:33.938112</EPOCH><MEAN_MOTION>14.45031815</MEAN_MOTION><ECCENTRICITY>.0005757</ECCENTRICITY><INCLINATION>45.0127</INCLINATION><RA_OF_ASC_NODE>261.3670</RA_OF_ASC_NODE><ARG_OF_PERICENTER>325.6919</ARG_OF_PERICENTER><MEAN_ANOMALY>34.3559</MEAN_ANOMALY></meanElements><tleParameters><EPHEMERIS_TYPE>0</EPHEMERIS_TYPE><CLASSIFICATION_TYPE>U</CLASSIFICATION_TYPE><NORAD_CAT_ID>25112</NORAD_CAT_ID><ELEMENT_SET_NO>999</ELEMENT_SET_NO><REV_AT_EPOCH>42287</REV_AT_EPOCH><BSTAR>.75999E-3</BSTAR><MEAN_MOTION_DOT>.2536E-4</MEAN_MOTION_DOT><MEAN_MOTION_DDOT>0</MEAN_MOTION_DDOT></tleParameters></data></segment></body></omm>
<omm id="CCSDS_OMM_VERS" version="2.0">
<header><CREATION_DATE/><ORIGINATOR/></header><body><segment><metadata><OBJECT_NAME>ORBCOMM FM10</OBJECT_NAME><OBJECT_ID>1997-084B</OBJECT_ID><CENTER_NAME>EARTH</CENTER_NAME><REF_FRAME>TEME</REF_FRAME><TIME_SYSTEM>UTC</TIME_SYSTEM><MEAN_ELEMENT_THEORY>SGP4</MEAN_ELEMENT_THEORY></metadata><data><meanElements><EPOCH>2025-02-09T08:29:28.539456</EPOCH><MEAN_MOTION>14.44841991</MEAN_MOTION><ECCENTRICITY>.0003923</ECCENTRICITY><INCLINATION>45.0141</INCLINATION><RA_OF_ASC_NODE>263.3764</RA_OF_ASC_NODE><ARG_OF_PERICENTER>288.0357</ARG_OF_PERICENTER><MEAN_ANOMALY>72.0066</MEAN_ANOMALY></meanElements><tleParameters><EPHEMERIS_TYPE>0</EPHEMERIS_TYPE><CLASSIFICATION_TYPE>U</CLASSIFICATION_TYPE><NORAD_CAT_ID>25113</NORAD_CAT_ID><ELEMENT_SET_NO>999</ELEMENT_SET_NO><REV_AT_EPOCH>59802</REV_AT_EPOCH><BSTAR>.77419E-3</BSTAR><MEAN_MOTION_DOT>.2575E-4</MEAN_MOTION_DOT><MEAN_MOTION_DDOT>0</MEAN_MOTION_DDOT></tleParameters></data></segment></body></omm>
<omm id="CCSDS_OMM_VERS" version="2.0">
<header><CREATION_DATE/><ORIGINATOR/></header><body><segment><metadata><OBJECT_NAME>ORBCOMM FM11</OBJECT_NAME><OBJECT_ID>1997-084C</OBJECT_ID><CENTER_NAME>EARTH</CENTER_NAME><REF_FRAME>TEME</REF_FRAME><TIME_SYSTEM>UTC</TIME_SYSTEM><MEAN_ELEMENT_THEORY>SGP4</MEAN_ELEMENT_THEORY></metadata><data><meanElements><EPOCH>2025-02-09T08:04:47.441280</EPOCH><MEAN_MOTION>14.44610793</MEAN_MOTION><ECCENTRICITY>.0004773</ECCENTRICITY><INCLINATION>45.0126</INCLINATION><RA_OF_ASC_NODE>263.8647</RA_OF_ASC_NODE><ARG_OF_PERICENTER>290.0320</ARG_OF_PERICENTER><MEAN_ANOMALY>70.0017</MEAN_ANOMALY></meanElements><tleParameters><EPHEMERIS_TYPE>0</EPHEMERIS_TYPE><CLASSIFICATION_TYPE>U</CLASSIFICATION_TYPE><NORAD_CAT_ID>25114</NORAD_CAT_ID><ELEMENT_SET_NO>999</ELEMENT_SET_NO><REV_AT_EPOCH>42298</REV_AT_EPOCH><BSTAR>.71723E-3</BSTAR><MEAN_MOTION_DOT>.2363E-4</MEAN_MOTION_DOT><MEAN_MOTION_DDOT>0</MEAN_MOTION_DDOT></tleParameters></data></segment></body></omm>
<omm id="CCSDS_OMM_VERS" version="2.0">
<header><CREATION_DATE/><ORIGINATOR/></header><body><segment><metadata><OBJECT_NAME>ORBCOMM FM12</OBJECT_NAME><OBJECT_ID>1997-084D</OBJECT_ID><CENTER_NAME>EARTH</CENTER_NAME><REF_FRAME>TEME</REF_FRAME><TIME_SYSTEM>UTC</TIME_SYSTEM><MEAN_ELEMENT_THEORY>SGP4</MEAN_ELEMENT_THEORY></metadata><data><meanElements><EPOCH>2025-02-09T18:50:22.588224</EPOCH><MEAN_MOTION>14.44619743</MEAN_MOTION><ECCENTRICITY>.0003701</ECCENTRICITY><INCLINATION>45.0131</INCLINATION><RA_OF_ASC_NODE>261.4787</RA_OF_ASC_NODE><ARG_OF_PERICENTER>289.6483</ARG_OF_PERICENTER><MEAN_ANOMALY>70.3969</MEAN_ANOMALY></meanElements><tleParameters><EPHEMERIS_TYPE>0</EPHEMERIS_TYPE><CLASSIFICATION_TYPE>U</CLASSIFICATION_TYPE><NORAD_CAT_ID>25115</NORAD_CAT_ID><ELEMENT_SET_NO>999</ELEMENT_SET_NO><REV_AT_EPOCH>42308</REV_AT_EPOCH><BSTAR>.77708E-3</BSTAR><MEAN_MOTION_DOT>.2573E-4</MEAN_MOTION_DOT><MEAN_MOTION_DDOT>0</MEAN_MOTION_DDOT></tleParameters></data></segment></body></omm>
<omm id="CCSDS_OMM_VERS" version="2.0">
<header><CREATION_DATE/><ORIGINATOR/></header><body><segment><metadata><OBJECT_NAME>ORBCOMM FM09</OBJECT_NAME><OBJECT_ID>1997-084E</OBJECT_ID><CENTER_NAME>EARTH</CENTER_NAME><REF_FRAME>TEME</REF_FRAME><TIME_SYSTEM>UTC</TIME_SYSTEM><MEAN_ELEMENT_THEORY>SGP4</MEAN_ELEMENT_THEORY></metadata><data><meanElements><EPOCH>2025-02-09T19:22:19.084512</EPOCH><MEAN_MOTION>14.44518641</MEAN_MOTION><ECCENTRICITY>.0005065</ECCENTRICITY><INCLINATION>45.0136</INCLINATION><RA_OF_ASC_NODE>262.1880</RA_OF_ASC_NODE><ARG_OF_PERICENTER>274.8190</ARG_OF_PERICENTER><MEAN_ANOMALY>85.2083</MEAN_ANOMALY></meanElements><tleParameters><EPHEMERIS_TYPE>0</EPHEMERIS_TYPE><CLASSIFICATION_TYPE>U</CLASSIFICATION_TYPE><NORAD_CAT_ID>25116</NORAD_CAT_ID><ELEMENT_SET_NO>999</ELEMENT_SET_NO><REV_AT_EPOCH>42308</REV_AT_EPOCH><BSTAR>.73139E-3</BSTAR><MEAN_MOTION_DOT>.2408E-4</MEAN_MOTION_DOT><MEAN_MOTION_DDOT>0</MEAN_MOTION_DDOT></tleParameters></data></segment></body></omm>

</ndm>
