ORBCOMM-X               
1 21576U 91050C   25040.18345210  .00000610  00000+0  19481-3 0  9993
2 21576  98.3601 109.3145 0003253 195.6724 164.4366 14.43079043763652
ORBCOMM FM01            
1 23545U 95017A   25040.69533377  .00010329  00000+0  11467-2 0  9990
2 23545  69.9646  31.5001 0003739 224.4859 135.5994 14.87435673593884
ORBCOMM FM02            
1 23546U 95017B   25040.75739152  .00012154  00000+0  13375-2 0  9995
2 23546  69.9658  51.0179 0004092 207.3062 152.7877 14.87730793593488
ORBCOMM FM08            
1 25112U 97084A   25040.32192058  .00002536  00000+0  75999-3 0  9997
2 25112  45.0127 261.3670 0005757 325.6919  34.3559 14.45031815422870
ORBCOMM FM10            
1 25113U 97084B   25040.35380254  .00002575  00000+0  77419-3 0  9990
2 25113  45.0141 263.3764 0003923 288.0357  72.0066 14.44841991598020
ORBCOMM FM11            
1 25114U 97084C   25040.33666020  .00002363  00000+0  71723-3 0  9994
2 25114  45.0126 263.8647 0004773 290.0320  70.0017 14.44610793422985
ORBCOMM FM12            
1 25115U 97084D   25040.78498366  .00002573  00000+0  77708-3 0  9992
2 25115  45.0131 261.4787 0003701 289.6483  70.3969 14.44619743423080
ORBCOMM FM09            
1 25116U 97084E   25040.80716533  .00002408  00000+0  73139-3 0  9996
2 25116  45.0136 262.1880 0005065 274.8190  85.2083 14.44518641423081
